[{"OBJECT_NAME":"STARLINK-2225","OBJECT_ID":"2021-041X","EPOCH":"2026-03-10T00:00:02.999808","MEAN_MOTION":15.27069763,"ECCENTRICITY":0.00014642,"INCLINATION":53.1456,"RA_OF_ASC_NODE":99.5289,"ARG_OF_PERICENTER":89.1304,"MEAN_ANOMALY":151.4925,"EPHEMERIS_TYPE":0,"CLASSIFICATION_TYPE":"U","NORAD_CAT_ID":48574,"ELEMENT_SET_NO":999,"REV_AT_EPOCH":574,"BSTAR":0.059549049,"MEAN_MOTION_DOT":0.01753094,"MEAN_MOTION_DDOT":0},{"OBJECT_NAME":"TITAN 4B R\/B","OBJECT_ID":"2005-016B","EPOCH":"2026-03-09T20:27:57.848832","MEAN_MOTION":15.42682045,"ECCENTRICITY":0.00616552,"INCLINATION":56.9964,"RA_OF_ASC_NODE":245.9411,"ARG_OF_PERICENTER":20.2929,"MEAN_ANOMALY":340.0555,"EPHEMERIS_TYPE":0,"CLASSIFICATION_TYPE":"U","NORAD_CAT_ID":28647,"ELEMENT_SET_NO":999,"REV_AT_EPOCH":37707,"BSTAR":0.00046483736,"MEAN_MOTION_DOT":0.0002164,"MEAN_MOTION_DDOT":0}]
